{
    "CCSDS_OMM_VERS": "3.0",
    "COMMENT": "GENERATED VIA SPACE-TRACK.ORG API",
    "CREATION_DATE": "2025-11-24T07:26:19",
    "ORIGINATOR": "18 SPCS",
    "OBJECT_NAME": "BEIDOU 2 G8",
    "OBJECT_ID": "2019-027A",
    "CENTER_NAME": "EARTH",
    "REF_FRAME": "TEME",
    "TIME_SYSTEM": "UTC",
    "MEAN_ELEMENT_THEORY": "SGP4",
    "EPOCH": "2025-11-24T04:25:46.504992",
    "MEAN_MOTION": "1.00274112",
    "ECCENTRICITY": "0.00077400",
    "INCLINATION": "1.6121",
    "RA_OF_ASC_NODE": "74.6647",
    "ARG_OF_PERICENTER": "257.6348",
    "MEAN_ANOMALY": "302.1101",
    "EPHEMERIS_TYPE": "0",
    "CLASSIFICATION_TYPE": "U",
    "NORAD_CAT_ID": "44231",
    "ELEMENT_SET_NO": "999",
    "REV_AT_EPOCH": "2402",
    "BSTAR": "0.00000000000000",
    "MEAN_MOTION_DOT": "-0.00000226",
    "MEAN_MOTION_DDOT": "0.0000000000000",
    "SEMIMAJOR_AXIS": "42164.080",
    "PERIOD": "1436.064",
    "APOAPSIS": "35818.580",
    "PERIAPSIS": "35753.310",
    "OBJECT_TYPE": "PAYLOAD",
    "RCS_SIZE": "LARGE",
    "COUNTRY_CODE": "PRC",
    "LAUNCH_DATE": "2019-05-17",
    "SITE": "XSC",
    "DECAY_DATE": null,
    "FILE": "4897008",
    "GP_ID": "303367944",
    "TLE_LINE0": "0 BEIDOU 2 G8",
    "TLE_LINE1": "1 44231U 19027A   25328.18456603 -.00000226  00000-0  00000+0 0  9996",
    "TLE_LINE2": "2 44231   1.6121  74.6647 0007740 257.6348 302.1101  1.00274112 24028"
}